[{"OBJECT_NAME":"IRIDIUM 124","OBJECT_ID":"2017-039H","EPOCH":"2026-04-05T02:47:49.088832","MEAN_MOTION":14.43295582,"ECCENTRICITY":0.0002147,"INCLINATION":86.4487,"RA_OF_ASC_NODE":320.9336,"ARG_OF_PERICENTER":88.7144,"MEAN_ANOMALY":271.4302,"EPHEMERIS_TYPE":0,"CLASSIFICATION_TYPE":"U","NORAD_CAT_ID":42810,"ELEMENT_SET_NO":999,"REV_AT_EPOCH":46457,"BSTAR":0.00013411277,"MEAN_MOTION_DOT":4.71e-6,"MEAN_MOTION_DDOT":0},{"OBJECT_NAME":"IRIDIUM 128","OBJECT_ID":"2017-039J","EPOCH":"2026-04-05T03:52:34.600512","MEAN_MOTION":14.34219458,"ECCENTRICITY":0.00024193,"INCLINATION":86.3957,"RA_OF_ASC_NODE":55.668,"ARG_OF_PERICENTER":89.0595,"MEAN_ANOMALY":271.0878,"EPHEMERIS_TYPE":0,"CLASSIFICATION_TYPE":"U","NORAD_CAT_ID":42811,"ELEMENT_SET_NO":999,"REV_AT_EPOCH":45951,"BSTAR":0.0001152475,"MEAN_MOTION_DOT":3.43e-6,"MEAN_MOTION_DDOT":0},{"OBJECT_NAME":"IRIDIUM 121","OBJECT_ID":"2017-039K","EPOCH":"2026-04-05T04:33:18.634464","MEAN_MOTION":14.3421837,"ECCENTRICITY":0.00022361,"INCLINATION":86.4013,"RA_OF_ASC_NODE":24.1676,"ARG_OF_PERICENTER":84.3745,"MEAN_ANOMALY":275.7706,"EPHEMERIS_TYPE":0,"CLASSIFICATION_TYPE":"U","NORAD_CAT_ID":42812,"ELEMENT_SET_NO":999,"REV_AT_EPOCH":45936,"BSTAR":6.399047e-6,"MEAN_MOTION_DOT":3.8e-7,"MEAN_MOTION_DDOT":0},{"OBJECT_NAME":"IRIDIUM 133","OBJECT_ID":"2017-061A","EPOCH":"2026-04-05T06:18:42.679872","MEAN_MOTION":14.34218507,"ECCENTRICITY":0.00022457,"INCLINATION":86.3958,"RA_OF_ASC_NODE":55.7415,"ARG_OF_PERICENTER":88.4528,"MEAN_ANOMALY":271.6925,"EPHEMERIS_TYPE":0,"CLASSIFICATION_TYPE":"U","NORAD_CAT_ID":42955,"ELEMENT_SET_NO":999,"REV_AT_EPOCH":44432,"BSTAR":6.6483286e-5,"MEAN_MOTION_DOT":2.06e-6,"MEAN_MOTION_DDOT":0},{"OBJECT_NAME":"IRIDIUM 100","OBJECT_ID":"2017-061B","EPOCH":"2026-04-05T02:48:38.683296","MEAN_MOTION":14.34217692,"ECCENTRICITY":0.00022113,"INCLINATION":86.3954,"RA_OF_ASC_NODE":55.7226,"ARG_OF_PERICENTER":89.2531,"MEAN_ANOMALY":270.8918,"EPHEMERIS_TYPE":0,"CLASSIFICATION_TYPE":"U","NORAD_CAT_ID":42956,"ELEMENT_SET_NO":999,"REV_AT_EPOCH":44430,"BSTAR":2.789054e-6,"MEAN_MOTION_DOT":2.8e-7,"MEAN_MOTION_DDOT":0},{"OBJECT_NAME":"IRIDIUM 122","OBJECT_ID":"2017-061C","EPOCH":"2026-04-05T07:04:22.639008","MEAN_MOTION":14.34217711,"ECCENTRICITY":0.00021825,"INCLINATION":86.3961,"RA_OF_ASC_NODE":55.6487,"ARG_OF_PERICENTER":88.7416,"MEAN_ANOMALY":271.403,"EPHEMERIS_TYPE":0,"CLASSIFICATION_TYPE":"U","NORAD_CAT_ID":42957,"ELEMENT_SET_NO":999,"REV_AT_EPOCH":44433,"BSTAR":5.8912573e-5,"MEAN_MOTION_DOT":1.85e-6,"MEAN_MOTION_DDOT":0},{"OBJECT_NAME":"IRIDIUM 129","OBJECT_ID":"2017-061D","EPOCH":"2026-04-04T23:18:34.486272","MEAN_MOTION":14.34219441,"ECCENTRICITY":0.00020611,"INCLINATION":86.3958,"RA_OF_ASC_NODE":55.8501,"ARG_OF_PERICENTER":79.217,"MEAN_ANOMALY":280.9258,"EPHEMERIS_TYPE":0,"CLASSIFICATION_TYPE":"U","NORAD_CAT_ID":42958,"ELEMENT_SET_NO":999,"REV_AT_EPOCH":44430,"BSTAR":0.00012262103,"MEAN_MOTION_DOT":3.63e-6,"MEAN_MOTION_DDOT":0},{"OBJECT_NAME":"IRIDIUM 119","OBJECT_ID":"2017-061E","EPOCH":"2026-04-05T06:55:14.698848","MEAN_MOTION":14.34217509,"ECCENTRICITY":0.00020516,"INCLINATION":86.3961,"RA_OF_ASC_NODE":55.713,"ARG_OF_PERICENTER":87.0529,"MEAN_ANOMALY":273.0902,"EPHEMERIS_TYPE":0,"CLASSIFICATION_TYPE":"U","NORAD_CAT_ID":42959,"ELEMENT_SET_NO":999,"REV_AT_EPOCH":44436,"BSTAR":6.7661e-8,"MEAN_MOTION_DOT":2.0e-7,"MEAN_MOTION_DDOT":0},{"OBJECT_NAME":"IRIDIUM 107","OBJECT_ID":"2017-061F","EPOCH":"2026-04-04T23:00:19.612512","MEAN_MOTION":14.34214884,"ECCENTRICITY":0.00022073,"INCLINATION":86.3959,"RA_OF_ASC_NODE":55.8717,"ARG_OF_PERICENTER":94.6843,"MEAN_ANOMALY":265.4605,"EPHEMERIS_TYPE":0,"CLASSIFICATION_TYPE":"U","NORAD_CAT_ID":42960,"ELEMENT_SET_NO":999,"REV_AT_EPOCH":44432,"BSTAR":0.00013917547,"MEAN_MOTION_DOT":4.1e-6,"MEAN_MOTION_DDOT":0},{"OBJECT_NAME":"IRIDIUM 132","OBJECT_ID":"2017-061G","EPOCH":"2026-04-05T04:10:50.571552","MEAN_MOTION":14.34219734,"ECCENTRICITY":0.00022436,"INCLINATION":86.3958,"RA_OF_ASC_NODE":55.7614,"ARG_OF_PERICENTER":88.9486,"MEAN_ANOMALY":271.1967,"EPHEMERIS_TYPE":0,"CLASSIFICATION_TYPE":"U","NORAD_CAT_ID":42961,"ELEMENT_SET_NO":999,"REV_AT_EPOCH":44435,"BSTAR":0.00014835573,"MEAN_MOTION_DOT":4.35e-6,"MEAN_MOTION_DDOT":0},{"OBJECT_NAME":"IRIDIUM 136","OBJECT_ID":"2017-061H","EPOCH":"2026-04-05T06:36:58.534272","MEAN_MOTION":14.34219381,"ECCENTRICITY":0.00021199,"INCLINATION":86.396,"RA_OF_ASC_NODE":55.7254,"ARG_OF_PERICENTER":89.1323,"MEAN_ANOMALY":271.0115,"EPHEMERIS_TYPE":0,"CLASSIFICATION_TYPE":"U","NORAD_CAT_ID":42962,"ELEMENT_SET_NO":999,"REV_AT_EPOCH":44438,"BSTAR":9.3221892e-5,"MEAN_MOTION_DOT":2.81e-6,"MEAN_MOTION_DDOT":0},{"OBJECT_NAME":"IRIDIUM 139","OBJECT_ID":"2017-061J","EPOCH":"2026-04-05T06:46:06.267072","MEAN_MOTION":14.34214482,"ECCENTRICITY":0.00023052,"INCLINATION":86.3958,"RA_OF_ASC_NODE":55.7836,"ARG_OF_PERICENTER":88.8612,"MEAN_ANOMALY":271.2848,"EPHEMERIS_TYPE":0,"CLASSIFICATION_TYPE":"U","NORAD_CAT_ID":42963,"ELEMENT_SET_NO":999,"REV_AT_EPOCH":44439,"BSTAR":0.00012222743,"MEAN_MOTION_DOT":3.62e-6,"MEAN_MOTION_DDOT":0},{"OBJECT_NAME":"IRIDIUM 125","OBJECT_ID":"2017-061K","EPOCH":"2026-04-05T03:06:54.615456","MEAN_MOTION":14.34217347,"ECCENTRICITY":0.00017477,"INCLINATION":86.396,"RA_OF_ASC_NODE":55.9069,"ARG_OF_PERICENTER":97.347,"MEAN_ANOMALY":262.7924,"EPHEMERIS_TYPE":0,"CLASSIFICATION_TYPE":"U","NORAD_CAT_ID":42964,"ELEMENT_SET_NO":999,"REV_AT_EPOCH":44438,"BSTAR":-3.417944e-6,"MEAN_MOTION_DOT":1.0e-7,"MEAN_MOTION_DDOT":0},{"OBJECT_NAME":"IRIDIUM 135","OBJECT_ID":"2017-083A","EPOCH":"2026-04-05T04:10:07.098528","MEAN_MOTION":14.3421881,"ECCENTRICITY":0.00021928,"INCLINATION":86.4017,"RA_OF_ASC_NODE":352.5386,"ARG_OF_PERICENTER":85.3304,"MEAN_ANOMALY":274.8142,"EPHEMERIS_TYPE":0,"CLASSIFICATION_TYPE":"U","NORAD_CAT_ID":43070,"ELEMENT_SET_NO":999,"REV_AT_EPOCH":43368,"BSTAR":6.0428692e-5,"MEAN_MOTION_DOT":1.89e-6,"MEAN_MOTION_DDOT":0},{"OBJECT_NAME":"IRIDIUM 138","OBJECT_ID":"2017-083B","EPOCH":"2026-04-05T04:46:39.062208","MEAN_MOTION":14.34218223,"ECCENTRICITY":0.00017771,"INCLINATION":86.403,"RA_OF_ASC_NODE":352.2126,"ARG_OF_PERICENTER":82.0083,"MEAN_ANOMALY":278.1314,"EPHEMERIS_TYPE":0,"CLASSIFICATION_TYPE":"U","NORAD_CAT_ID":43071,"ELEMENT_SET_NO":999,"REV_AT_EPOCH":43367,"BSTAR":3.1594851e-5,"MEAN_MOTION_DOT":1.08e-6,"MEAN_MOTION_DDOT":0},{"OBJECT_NAME":"IRIDIUM 116","OBJECT_ID":"2017-083C","EPOCH":"2026-04-05T05:41:27.129120","MEAN_MOTION":14.3421912,"ECCENTRICITY":0.00023972,"INCLINATION":86.4015,"RA_OF_ASC_NODE":352.4991,"ARG_OF_PERICENTER":87.2331,"MEAN_ANOMALY":272.9139,"EPHEMERIS_TYPE":0,"CLASSIFICATION_TYPE":"U","NORAD_CAT_ID":43072,"ELEMENT_SET_NO":999,"REV_AT_EPOCH":43371,"BSTAR":0.00013142638,"MEAN_MOTION_DOT":3.88e-6,"MEAN_MOTION_DDOT":0},{"OBJECT_NAME":"IRIDIUM 130","OBJECT_ID":"2017-083D","EPOCH":"2026-04-05T06:36:15.133824","MEAN_MOTION":14.34218414,"ECCENTRICITY":0.00022716,"INCLINATION":86.4024,"RA_OF_ASC_NODE":352.7511,"ARG_OF_PERICENTER":91.532,"MEAN_ANOMALY":268.6136,"EPHEMERIS_TYPE":0,"CLASSIFICATION_TYPE":"U","NORAD_CAT_ID":43073,"ELEMENT_SET_NO":999,"REV_AT_EPOCH":43366,"BSTAR":4.669774e-5,"MEAN_MOTION_DOT":1.51e-6,"MEAN_MOTION_DDOT":0}]
