IRIDIUM 124             
1 42810U 17039H   26095.11654038  .00000471  00000+0  13411-3 0  9999
2 42810  86.4487 320.9336 0002147  88.7144 271.4302 14.43295582464574
IRIDIUM 128             
1 42811U 17039J   26095.16151158  .00000343  00000+0  11525-3 0  9992
2 42811  86.3957  55.6680 0002419  89.0595 271.0878 14.34219458459516
IRIDIUM 121             
1 42812U 17039K   26095.18979901  .00000038  00000+0  63990-5 0  9995
2 42812  86.4013  24.1676 0002236  84.3745 275.7706 14.34218370459365
IRIDIUM 133             
1 42955U 17061A   26095.26299398  .00000206  00000+0  66483-4 0  9998
2 42955  86.3958  55.7415 0002245  88.4528 271.6925 14.34218507444325
IRIDIUM 100             
1 42956U 17061B   26095.11711439  .00000028  00000+0  27891-5 0  9991
2 42956  86.3954  55.7226 0002211  89.2531 270.8918 14.34217692444303
IRIDIUM 122             
1 42957U 17061C   26095.29470647  .00000185  00000+0  58913-4 0  9996
2 42957  86.3961  55.6487 0002182  88.7416 271.4030 14.34217711444330
IRIDIUM 129             
1 42958U 17061D   26094.97123248  .00000363  00000+0  12262-3 0  9997
2 42958  86.3958  55.8501 0002061  79.2170 280.9258 14.34219441444300
IRIDIUM 119             
1 42959U 17061E   26095.28836457  .00000020  00000+0  67661-7 0  9993
2 42959  86.3961  55.7130 0002051  87.0529 273.0902 14.34217509444364
IRIDIUM 107             
1 42960U 17061F   26094.95856033  .00000410  00000+0  13918-3 0  9995
2 42960  86.3959  55.8717 0002207  94.6843 265.4605 14.34214884444325
IRIDIUM 132             
1 42961U 17061G   26095.17419643  .00000435  00000+0  14836-3 0  9990
2 42961  86.3958  55.7614 0002243  88.9486 271.1967 14.34219734444356
IRIDIUM 136             
1 42962U 17061H   26095.27567748  .00000281  00000+0  93222-4 0  9998
2 42962  86.3960  55.7254 0002119  89.1323 271.0115 14.34219381444380
IRIDIUM 139             
1 42963U 17061J   26095.28201698  .00000362  00000+0  12223-3 0  9990
2 42963  86.3958  55.7836 0002305  88.8612 271.2848 14.34214482444391
IRIDIUM 125             
1 42964U 17061K   26095.12979879  .00000010  00000+0 -34179-5 0  9994
2 42964  86.3960  55.9069 0001747  97.3470 262.7924 14.34217347444383
IRIDIUM 135             
1 43070U 17083A   26095.17369327  .00000189  00000+0  60429-4 0  9995
2 43070  86.4017 352.5386 0002192  85.3304 274.8142 14.34218810433685
IRIDIUM 138             
1 43071U 17083B   26095.19906322  .00000108  00000+0  31595-4 0  9993
2 43071  86.4030 352.2126 0001777  82.0083 278.1314 14.34218223433671
IRIDIUM 116             
1 43072U 17083C   26095.23711955  .00000388  00000+0  13143-3 0  9993
2 43072  86.4015 352.4991 0002397  87.2331 272.9139 14.34219120433718
IRIDIUM 130             
1 43073U 17083D   26095.27517516  .00000151  00000+0  46698-4 0  9995
2 43073  86.4024 352.7511 0002271  91.5320 268.6136 14.34218414433665
